[
    {
        "Altitude(m)": 702999.2331752438,
        "Argument of Periapsis(deg)": 0.010251109067964361,
        "Eccentricity": 0.0,
        "Inclination(deg)": 45.0,
        "Latitude(deg)": 4.184150060983,
        "Longitude(deg)": -49.86626100141409,
        "Mean Anomaly(deg)": -185.98370501726723,
        "RAAN(deg)": 234.9903232526876,
        "Satellite Name": "Constellation 1 1044",
        "Satellite Number": 1044,
        "Semi-Major Axis(m)": 7083131.272910544,
        "Time(s)": 171
    },
    {
        "Altitude(m)": 703002.8338761342,
        "Argument of Periapsis(deg)": 0.010311057074209765,
        "Eccentricity": 0.0,
        "Inclination(deg)": 45.0,
        "Latitude(deg)": 4.141044059157883,
        "Longitude(deg)": -49.82728077673474,
        "Mean Anomaly(deg)": -185.92300387701735,
        "RAAN(deg)": 234.99026666352205,
        "Satellite Name": "Constellation 1 1044",
        "Satellite Number": 1044,
        "Semi-Major Axis(m)": 7083131.272910544,
        "Time(s)": 172
    },
    {
        "Altitude(m)": 703006.4554005363,
        "Argument of Periapsis(deg)": 0.010371005080455171,
        "Eccentricity": 0.0,
        "Inclination(deg)": 45.0,
        "Latitude(deg)": 4.097935719971181,
        "Longitude(deg)": -49.7883052695263,
        "Mean Anomaly(deg)": -185.86230273676745,
        "RAAN(deg)": 234.9902100743565,
        "Satellite Name": "Constellation 1 1044",
        "Satellite Number": 1044,
        "Semi-Major Axis(m)": 7083131.272910544,
        "Time(s)": 173
    },
    {
        "Altitude(m)": 703010.0977509604,
        "Argument of Periapsis(deg)": 0.010430953086700577,
        "Eccentricity": 0.0,
        "Inclination(deg)": 45.0,
        "Latitude(deg)": 4.054825068803418,
        "Longitude(deg)": -49.74933443096443,
        "Mean Anomaly(deg)": -185.8016015965176,
        "RAAN(deg)": 234.9901534851909,
        "Satellite Name": "Constellation 1 1044",
        "Satellite Number": 1044,
        "Semi-Major Axis(m)": 7083131.272910544,
        "Time(s)": 174
    },
    {
        "Altitude(m)": 703013.7609298162,
        "Argument of Periapsis(deg)": 0.010490901092945983,
        "Eccentricity": 0.0,
        "Inclination(deg)": 45.0,
        "Latitude(deg)": 4.011712131026257,
        "Longitude(deg)": -49.710368212235196,
        "Mean Anomaly(deg)": -185.7409004562676,
        "RAAN(deg)": 234.9900968960253,
        "Satellite Name": "Constellation 1 1044",
        "Satellite Number": 1044,
        "Semi-Major Axis(m)": 7083131.272910544,
        "Time(s)": 175
    },
    {
        "Altitude(m)": 703017.4449394263,
        "Argument of Periapsis(deg)": 0.010550849099191389,
        "Eccentricity": 0.0,
        "Inclination(deg)": 45.0,
        "Latitude(deg)": 3.968596932002488,
        "Longitude(deg)": -49.67140656453536,
        "Mean Anomaly(deg)": -185.68019931601776,
        "RAAN(deg)": 234.99004030685975,
        "Satellite Name": "Constellation 1 1044",
        "Satellite Number": 1044,
        "Semi-Major Axis(m)": 7083131.272910544,
        "Time(s)": 176
    },
    {
        "Altitude(m)": 703021.1497820194,
        "Argument of Periapsis(deg)": 0.010610797105436795,
        "Eccentricity": 0.0,
        "Inclination(deg)": 45.0,
        "Latitude(deg)": 3.9254794970859592,
        "Longitude(deg)": -49.63244943907189,
        "Mean Anomaly(deg)": -185.61949817576783,
        "RAAN(deg)": 234.9899837176942,
        "Satellite Name": "Constellation 1 1044",
        "Satellite Number": 1044,
        "Semi-Major Axis(m)": 7083131.272910544,
        "Time(s)": 177
    },
    {
        "Altitude(m)": 703024.875459734,
        "Argument of Periapsis(deg)": 0.0106707451116822,
        "Eccentricity": 0.0,
        "Inclination(deg)": 45.0,
        "Latitude(deg)": 3.8823598516218754,
        "Longitude(deg)": -49.59349695515903,
        "Mean Anomaly(deg)": -185.55879703551798,
        "RAAN(deg)": 234.98992712852865,
        "Satellite Name": "Constellation 1 1044",
        "Satellite Number": 1044,
        "Semi-Major Axis(m)": 7083131.272910544,
        "Time(s)": 178
    },
    {
        "Altitude(m)": 703028.6219746083,
        "Argument of Periapsis(deg)": 0.010730693117927606,
        "Eccentricity": 0.0,
        "Inclination(deg)": 45.0,
        "Latitude(deg)": 3.8392380209470027,
        "Longitude(deg)": -49.554548727830095,
        "Mean Anomaly(deg)": -185.49809589526805,
        "RAAN(deg)": 234.989870539363,
        "Satellite Name": "Constellation 1 1044",
        "Satellite Number": 1044,
        "Semi-Major Axis(m)": 7083131.272910544,
        "Time(s)": 179
    },
    {
        "Altitude(m)": 703032.389328595,
        "Argument of Periapsis(deg)": 0.01079064112417301,
        "Eccentricity": 0.0,
        "Inclination(deg)": 45.0,
        "Latitude(deg)": 3.796114030389401,
        "Longitude(deg)": -49.51560487641947,
        "Mean Anomaly(deg)": -185.43739475501812,
        "RAAN(deg)": 234.98981395019746,
        "Satellite Name": "Constellation 1 1044",
        "Satellite Number": 1044,
        "Semi-Major Axis(m)": 7083131.272910544,
        "Time(s)": 180
    },
    {
        "Altitude(m)": 703036.1775235527,
        "Argument of Periapsis(deg)": 0.010850589130418416,
        "Eccentricity": 0.0,
        "Inclination(deg)": 45.0,
        "Latitude(deg)": 3.752987905268678,
        "Longitude(deg)": -49.47666535217446,
        "Mean Anomaly(deg)": -185.37669361476821,
        "RAAN(deg)": 234.9897573610319,
        "Satellite Name": "Constellation 1 1044",
        "Satellite Number": 1044,
        "Semi-Major Axis(m)": 7083131.272910544,
        "Time(s)": 181
    },
    {
        "Altitude(m)": 703039.9865612491,
        "Argument of Periapsis(deg)": 0.01091053713666382,
        "Eccentricity": 0.0,
        "Inclination(deg)": 45.0,
        "Latitude(deg)": 3.7098596708961313,
        "Longitude(deg)": -49.43773010635213,
        "Mean Anomaly(deg)": -185.31599247451834,
        "RAAN(deg)": 234.98970077186635,
        "Satellite Name": "Constellation 1 1044",
        "Satellite Number": 1044,
        "Semi-Major Axis(m)": 7083131.272910544,
        "Time(s)": 182
    },
    {
        "Altitude(m)": 703043.8164433516,
        "Argument of Periapsis(deg)": 0.010970485142909228,
        "Eccentricity": 0.0,
        "Inclination(deg)": 45.0,
        "Latitude(deg)": 3.6667293525748956,
        "Longitude(deg)": -49.3987990902193,
        "Mean Anomaly(deg)": -185.2552913342685,
        "RAAN(deg)": 234.9896441827008,
        "Satellite Name": "Constellation 1 1044",
        "Satellite Number": 1044,
        "Semi-Major Axis(m)": 7083131.272910544,
        "Time(s)": 183
    },
    {
        "Altitude(m)": 703047.6671714431,
        "Argument of Periapsis(deg)": 0.011030433149154634,
        "Eccentricity": 0.0,
        "Inclination(deg)": 45.0,
        "Latitude(deg)": 3.623596975599743,
        "Longitude(deg)": -49.359872255052444,
        "Mean Anomaly(deg)": -185.1945901940186,
        "RAAN(deg)": 234.98958759353516,
        "Satellite Name": "Constellation 1 1044",
        "Satellite Number": 1044,
        "Semi-Major Axis(m)": 7083131.272910544,
        "Time(s)": 184
    },
    {
        "Altitude(m)": 703051.5387470049,
        "Argument of Periapsis(deg)": 0.01109038115540004,
        "Eccentricity": 0.0,
        "Inclination(deg)": 45.0,
        "Latitude(deg)": 3.5804625652573576,
        "Longitude(deg)": -49.32094972023433,
        "Mean Anomaly(deg)": -185.13388905376863,
        "RAAN(deg)": 234.9895310043696,
        "Satellite Name": "Constellation 1 1044",
        "Satellite Number": 1044,
        "Semi-Major Axis(m)": 7083131.272910544,
        "Time(s)": 185
    },
    {
        "Altitude(m)": 703055.4311714404,
        "Argument of Periapsis(deg)": 0.011150329161645444,
        "Eccentricity": 0.0,
        "Inclination(deg)": 45.0,
        "Latitude(deg)": 3.5373261468271058,
        "Longitude(deg)": -49.28203110086644,
        "Mean Anomaly(deg)": -185.07318791351878,
        "RAAN(deg)": 234.98947441520406,
        "Satellite Name": "Constellation 1 1044",
        "Satellite Number": 1044,
        "Semi-Major Axis(m)": 7083131.272910544,
        "Time(s)": 186
    },
    {
        "Altitude(m)": 703059.3444460421,
        "Argument of Periapsis(deg)": 0.01121027716789085,
        "Eccentricity": 0.0,
        "Inclination(deg)": 45.0,
        "Latitude(deg)": 3.494187745579633,
        "Longitude(deg)": -49.24311651635022,
        "Mean Anomaly(deg)": -185.01248677326888,
        "RAAN(deg)": 234.9894178260385,
        "Satellite Name": "Constellation 1 1044",
        "Satellite Number": 1044,
        "Semi-Major Axis(m)": 7083131.272910544,
        "Time(s)": 187
    },
    {
        "Altitude(m)": 703063.2785720259,
        "Argument of Periapsis(deg)": 0.011270225174136258,
        "Eccentricity": 0.0,
        "Inclination(deg)": 45.0,
        "Latitude(deg)": 3.451047386778194,
        "Longitude(deg)": -49.20420591799938,
        "Mean Anomaly(deg)": -184.95178563301897,
        "RAAN(deg)": 234.98936123687295,
        "Satellite Name": "Constellation 1 1044",
        "Satellite Number": 1044,
        "Semi-Major Axis(m)": 7083131.272910544,
        "Time(s)": 188
    },
    {
        "Altitude(m)": 703067.2335505023,
        "Argument of Periapsis(deg)": 0.011330173180381662,
        "Eccentricity": 0.0,
        "Inclination(deg)": 45.0,
        "Latitude(deg)": 3.407905095678281,
        "Longitude(deg)": -49.16529925713692,
        "Mean Anomaly(deg)": -184.891084492769,
        "RAAN(deg)": 234.9893046477074,
        "Satellite Name": "Constellation 1 1044",
        "Satellite Number": 1044,
        "Semi-Major Axis(m)": 7083131.272910544,
        "Time(s)": 189
    }
]